[{"OBJECT_NAME":"SWAS","OBJECT_ID":"1998-071A","EPOCH":"2026-03-09T12:50:12.826752","MEAN_MOTION":15.08888192,"ECCENTRICITY":0.00040991,"INCLINATION":69.8952,"RA_OF_ASC_NODE":124.3662,"ARG_OF_PERICENTER":14.3215,"MEAN_ANOMALY":345.8065,"EPHEMERIS_TYPE":0,"CLASSIFICATION_TYPE":"U","NORAD_CAT_ID":25560,"ELEMENT_SET_NO":999,"REV_AT_EPOCH":48223,"BSTAR":0.00029986322,"MEAN_MOTION_DOT":4.636e-5,"MEAN_MOTION_DDOT":0},{"OBJECT_NAME":"STARLINK-3774","OBJECT_ID":"2022-053AA","EPOCH":"2026-03-09T11:23:59.866080","MEAN_MOTION":15.08839742,"ECCENTRICITY":0.00012661,"INCLINATION":53.2178,"RA_OF_ASC_NODE":144.8536,"ARG_OF_PERICENTER":65.5065,"MEAN_ANOMALY":294.6059,"EPHEMERIS_TYPE":0,"CLASSIFICATION_TYPE":"U","NORAD_CAT_ID":52680,"ELEMENT_SET_NO":999,"REV_AT_EPOCH":21112,"BSTAR":1.1530099e-5,"MEAN_MOTION_DOT":-1.04e-6,"MEAN_MOTION_DDOT":0}]
